start=new Date('2022-02-20T00:00:00.000Z').valueOf();
sats=[{"NORAD_CAT_ID":"48372","MEAN_ELEMENT_THEORY":"SGP4","PERIOD":"95.592","GP_ID":"196428657","RCS_SIZE":"LARGE","FILE":"3308986","TLE_LINE2":"2 48372  53.0561 151.1314 0001412  52.7569 307.3548 15.06407007 44248","REF_FRAME":"TEME","CLASSIFICATION_TYPE":"U","SITE":"AFETR","OBJECT_TYPE":"PAYLOAD","MEAN_MOTION_DDOT":"0.0000000000000","ECCENTRICITY":"0.00014120","DECAY_DATE":null,"SEMIMAJOR_AXIS":"6925.327","REV_AT_EPOCH":"4424","ELEMENT_SET_NO":"999","ARG_OF_PERICENTER":"52.7569","MEAN_MOTION_DOT":"0.00001262","EPOCH":"2022-02-19T16:28:17.776704","APOAPSIS":"548.170","CENTER_NAME":"EARTH","PERIAPSIS":"546.214","BSTAR":"0.00010359000000","INCLINATION":"53.0561","TLE_LINE1":"1 48372U 21038V   22050.68631686  .00001262  00000-0  10359-3 0  9993","MEAN_MOTION":"15.06407007","OBJECT_NAME":"STARLINK-2572","MEAN_ANOMALY":"307.3548","OBJECT_ID":"2021-038V","RA_OF_ASC_NODE":"151.1314","COUNTRY_CODE":"US","EPHEMERIS_TYPE":"0","TIME_SYSTEM":"UTC","LAUNCH_DATE":"2021-05-04"},{"ARG_OF_PERICENTER":"64.4447","ELEMENT_SET_NO":"999","EPOCH":"2022-02-19T16:22:59.139552","MEAN_MOTION_DOT":"0.00002212","CENTER_NAME":"EARTH","APOAPSIS":"548.100","TLE_LINE1":"1 48373U 21038W   22050.68262893  .00002212  00000-0  16733-3 0  9992","MEAN_MOTION":"15.06409404","BSTAR":"0.00016733000000","INCLINATION":"53.0543","PERIAPSIS":"546.269","MEAN_ANOMALY":"295.6678","OBJECT_ID":"2021-038W","OBJECT_NAME":"STARLINK-2609","COUNTRY_CODE":"US","RA_OF_ASC_NODE":"151.1545","LAUNCH_DATE":"2021-05-04","TIME_SYSTEM":"UTC","EPHEMERIS_TYPE":"0","NORAD_CAT_ID":"48373","MEAN_ELEMENT_THEORY":"SGP4","GP_ID":"196428911","PERIOD":"95.592","FILE":"3308986","RCS_SIZE":"LARGE","TLE_LINE2":"2 48373  53.0543 151.1545 0001322  64.4447 295.6678 15.06409404 44246","SITE":"AFETR","CLASSIFICATION_TYPE":"U","REF_FRAME":"TEME","MEAN_MOTION_DDOT":"0.0000000000000","OBJECT_TYPE":"PAYLOAD","DECAY_DATE":null,"ECCENTRICITY":"0.00013220","REV_AT_EPOCH":"4424","SEMIMAJOR_AXIS":"6925.320"},{"ELEMENT_SET_NO":"999","ARG_OF_PERICENTER":"51.6207","EPOCH":"2022-02-19T16:17:42.188928","MEAN_MOTION_DOT":"-0.00001150","CENTER_NAME":"EARTH","APOAPSIS":"548.587","TLE_LINE1":"1 48374U 21038X   22050.67896052 -.00001150  00000-0 -58326-4 0  9999","MEAN_MOTION":"15.06394052","INCLINATION":"53.0554","BSTAR":"-0.00005832600000","PERIAPSIS":"545.876","MEAN_ANOMALY":"308.4958","OBJECT_ID":"2021-038X","OBJECT_NAME":"STARLINK-2604","COUNTRY_CODE":"US","RA_OF_ASC_NODE":"151.1603","TIME_SYSTEM":"UTC","LAUNCH_DATE":"2021-05-04","EPHEMERIS_TYPE":"0","NORAD_CAT_ID":"48374","MEAN_ELEMENT_THEORY":"SGP4","GP_ID":"196427662","PERIOD":"95.593","FILE":"3308986","RCS_SIZE":"LARGE","TLE_LINE2":"2 48374  53.0554 151.1603 0001957  51.6207 308.4958 15.06394052 44246","SITE":"AFETR","CLASSIFICATION_TYPE":"U","REF_FRAME":"TEME","MEAN_MOTION_DDOT":"0.0000000000000","OBJECT_TYPE":"PAYLOAD","DECAY_DATE":null,"ECCENTRICITY":"0.00019570","REV_AT_EPOCH":"4424","SEMIMAJOR_AXIS":"6925.367"},{"SITE":"AFETR","REF_FRAME":"TEME","CLASSIFICATION_TYPE":"U","MEAN_MOTION_DDOT":"0.0000000000000","OBJECT_TYPE":"PAYLOAD","ECCENTRICITY":"0.00014180","DECAY_DATE":null,"REV_AT_EPOCH":"4422","SEMIMAJOR_AXIS":"6925.319","NORAD_CAT_ID":"48375","MEAN_ELEMENT_THEORY":"SGP4","GP_ID":"196391602","PERIOD":"95.592","FILE":"3308480","RCS_SIZE":"LARGE","TLE_LINE2":"2 48375  53.0549 151.7744 0001418  70.1185 289.9957 15.06409791 44223","MEAN_MOTION":"15.06409791","TLE_LINE1":"1 48375U 21038Y   22050.54255945  .00002503  00000-0  18683-3 0  9998","PERIAPSIS":"546.202","BSTAR":"0.00018683000000","INCLINATION":"53.0549","OBJECT_NAME":"STARLINK-2603","OBJECT_ID":"2021-038Y","MEAN_ANOMALY":"289.9957","RA_OF_ASC_NODE":"151.7744","COUNTRY_CODE":"US","TIME_SYSTEM":"UTC","LAUNCH_DATE":"2021-05-04","EPHEMERIS_TYPE":"0","ARG_OF_PERICENTER":"70.1185","ELEMENT_SET_NO":"999","MEAN_MOTION_DOT":"0.00002503","EPOCH":"2022-02-19T13:01:17.136480","CENTER_NAME":"EARTH","APOAPSIS":"548.166"},{"ECCENTRICITY":"0.00013140","DECAY_DATE":null,"SEMIMAJOR_AXIS":"6925.362","REV_AT_EPOCH":"4423","REF_FRAME":"TEME","CLASSIFICATION_TYPE":"U","SITE":"AFETR","OBJECT_TYPE":"PAYLOAD","MEAN_MOTION_DDOT":"0.0000000000000","RCS_SIZE":"LARGE","FILE":"3308986","TLE_LINE2":"2 48376  53.0544 151.5003 0001314  69.5693 290.5437 15.06395516 44237","NORAD_CAT_ID":"48376","MEAN_ELEMENT_THEORY":"SGP4","PERIOD":"95.592","GP_ID":"196428157","RA_OF_ASC_NODE":"151.5003","COUNTRY_CODE":"US","EPHEMERIS_TYPE":"0","TIME_SYSTEM":"UTC","LAUNCH_DATE":"2021-05-04","PERIAPSIS":"546.317","BSTAR":"0.00003613600000","INCLINATION":"53.0544","MEAN_MOTION":"15.06395516","TLE_LINE1":"1 48376U 21038Z   22050.60523731  .00000257  00000-0  36136-4 0  9995","OBJECT_NAME":"STARLINK-2610","OBJECT_ID":"2021-038Z","MEAN_ANOMALY":"290.5437","APOAPSIS":"548.137","CENTER_NAME":"EARTH","ELEMENT_SET_NO":"999","ARG_OF_PERICENTER":"69.5693","MEAN_MOTION_DOT":"0.00000257","EPOCH":"2022-02-19T14:31:32.503584"},{"NORAD_CAT_ID":"48377","MEAN_ELEMENT_THEORY":"SGP4","PERIOD":"95.592","GP_ID":"196428411","RCS_SIZE":"LARGE","FILE":"3308986","TLE_LINE2":"2 48377  53.0546 150.6162 0001390  69.3173 290.7965 15.06397855 44260","REF_FRAME":"TEME","CLASSIFICATION_TYPE":"U","SITE":"AFETR","OBJECT_TYPE":"PAYLOAD","MEAN_MOTION_DDOT":"0.0000000000000","ECCENTRICITY":"0.00013900","DECAY_DATE":null,"SEMIMAJOR_AXIS":"6925.355","REV_AT_EPOCH":"4426","ELEMENT_SET_NO":"999","ARG_OF_PERICENTER":"69.3173","MEAN_MOTION_DOT":"-0.00000829","EPOCH":"2022-02-19T19:12:50.009184","APOAPSIS":"548.183","CENTER_NAME":"EARTH","PERIAPSIS":"546.258","INCLINATION":"53.0546","BSTAR":"-0.00003676200000","MEAN_MOTION":"15.06397855","TLE_LINE1":"1 48377U 21038AA  22050.80057881 -.00000829  00000-0 -36762-4 0  9998","OBJECT_NAME":"STARLINK-2499","MEAN_ANOMALY":"290.7965","OBJECT_ID":"2021-038AA","RA_OF_ASC_NODE":"150.6162","COUNTRY_CODE":"US","EPHEMERIS_TYPE":"0","LAUNCH_DATE":"2021-05-04","TIME_SYSTEM":"UTC"},{"NORAD_CAT_ID":"48378","MEAN_ELEMENT_THEORY":"SGP4","GP_ID":"196427162","PERIOD":"95.592","FILE":"3308986","RCS_SIZE":"LARGE","TLE_LINE2":"2 48378  53.0529 150.6352 0001316  59.5899 300.5220 15.06406427 44267","SITE":"AFETR","CLASSIFICATION_TYPE":"U","REF_FRAME":"TEME","MEAN_MOTION_DDOT":"0.0000000000000","OBJECT_TYPE":"PAYLOAD","ECCENTRICITY":"0.00013160","DECAY_DATE":null,"REV_AT_EPOCH":"4426","SEMIMAJOR_AXIS":"6925.329","ELEMENT_SET_NO":"999","ARG_OF_PERICENTER":"59.5899","MEAN_MOTION_DOT":"0.00004448","EPOCH":"2022-02-19T19:07:32.035584","CENTER_NAME":"EARTH","APOAPSIS":"548.105","TLE_LINE1":"1 48378U 21038AB  22050.79689856  .00004448  00000-0  31724-3 0  9991","MEAN_MOTION":"15.06406427","PERIAPSIS":"546.282","INCLINATION":"53.0529","BSTAR":"0.00031724000000","OBJECT_NAME":"STARLINK-2526","OBJECT_ID":"2021-038AB","MEAN_ANOMALY":"300.5220","RA_OF_ASC_NODE":"150.6352","COUNTRY_CODE":"US","TIME_SYSTEM":"UTC","LAUNCH_DATE":"2021-05-04","EPHEMERIS_TYPE":"0"},{"DECAY_DATE":null,"ECCENTRICITY":"0.00014200","SEMIMAJOR_AXIS":"6925.368","REV_AT_EPOCH":"4426","CLASSIFICATION_TYPE":"U","REF_FRAME":"TEME","SITE":"AFETR","OBJECT_TYPE":"PAYLOAD","MEAN_MOTION_DDOT":"0.0000000000000","RCS_SIZE":"MEDIUM","FILE":"3308986","TLE_LINE2":"2 48379  53.0546 150.6469 0001420  66.7409 293.3729 15.06393604 44264","NORAD_CAT_ID":"48379","MEAN_ELEMENT_THEORY":"SGP4","PERIOD":"95.593","GP_ID":"196427410","COUNTRY_CODE":"US","RA_OF_ASC_NODE":"150.6469","EPHEMERIS_TYPE":"0","TIME_SYSTEM":"UTC","LAUNCH_DATE":"2021-05-04","BSTAR":"0.00005215700000","INCLINATION":"53.0546","PERIAPSIS":"546.250","TLE_LINE1":"1 48379U 21038AC  22050.79322368  .00000495  00000-0  52157-4 0  9996","MEAN_MOTION":"15.06393604","MEAN_ANOMALY":"293.3729","OBJECT_ID":"2021-038AC","OBJECT_NAME":"STARLINK-2612","APOAPSIS":"548.217","CENTER_NAME":"EARTH","ARG_OF_PERICENTER":"66.7409","ELEMENT_SET_NO":"999","EPOCH":"2022-02-19T19:02:14.525952","MEAN_MOTION_DOT":"0.00000495"},{"TIME_SYSTEM":"UTC","LAUNCH_DATE":"2021-05-04","EPHEMERIS_TYPE":"0","COUNTRY_CODE":"US","RA_OF_ASC_NODE":"150.8318","OBJECT_ID":"2021-038AD","MEAN_ANOMALY":"302.5620","OBJECT_NAME":"STARLINK-2614","MEAN_MOTION":"15.06395028","TLE_LINE1":"1 48380U 21038AD  22050.75173016  .00000587  00000-0  58303-4 0  9999","INCLINATION":"53.0557","BSTAR":"0.00005830300000","PERIAPSIS":"546.155","CENTER_NAME":"EARTH","APOAPSIS":"548.302","EPOCH":"2022-02-19T18:02:29.485824","MEAN_MOTION_DOT":"0.00000587","ARG_OF_PERICENTER":"57.5518","ELEMENT_SET_NO":"999","REV_AT_EPOCH":"4425","SEMIMAJOR_AXIS":"6925.364","DECAY_DATE":null,"ECCENTRICITY":"0.00015500","MEAN_MOTION_DDOT":"0.0000000000000","OBJECT_TYPE":"PAYLOAD","SITE":"AFETR","CLASSIFICATION_TYPE":"U","REF_FRAME":"TEME","TLE_LINE2":"2 48380  53.0557 150.8318 0001550  57.5518 302.5620 15.06395028 44250","FILE":"3308986","RCS_SIZE":"LARGE","GP_ID":"196428658","PERIOD":"95.592","NORAD_CAT_ID":"48380","MEAN_ELEMENT_THEORY":"SGP4"},{"APOAPSIS":"548.180","CENTER_NAME":"EARTH","EPOCH":"2022-02-19T18:56:55.205376","MEAN_MOTION_DOT":"0.00001719","ELEMENT_SET_NO":"999","ARG_OF_PERICENTER":"55.0149","EPHEMERIS_TYPE":"0","TIME_SYSTEM":"UTC","LAUNCH_DATE":"2021-05-04","COUNTRY_CODE":"US","RA_OF_ASC_NODE":"150.6645","OBJECT_ID":"2021-038AE","MEAN_ANOMALY":"305.0971","OBJECT_NAME":"STARLINK-2630","INCLINATION":"53.0528","BSTAR":"0.00013427000000","PERIAPSIS":"546.244","TLE_LINE1":"1 48381U 21038AE  22050.78952784  .00001719  00000-0  13427-3 0  9995","MEAN_MOTION":"15.06400404","TLE_LINE2":"2 48381  53.0528 150.6645 0001398  55.0149 305.0971 15.06400404 44266","RCS_SIZE":"LARGE","FILE":"3308986","PERIOD":"95.592","GP_ID":"196428912","NORAD_CAT_ID":"48381","MEAN_ELEMENT_THEORY":"SGP4","SEMIMAJOR_AXIS":"6925.347","REV_AT_EPOCH":"4426","DECAY_DATE":null,"ECCENTRICITY":"0.00013980","OBJECT_TYPE":"PAYLOAD","MEAN_MOTION_DDOT":"0.0000000000000","CLASSIFICATION_TYPE":"U","REF_FRAME":"TEME","SITE":"AFETR"}];
